{
  "type": "FeatureCollection",
  "features": [
    {
      "type": "Feature",
      "properties": {
        "norad_id": 33939,
        "name": "COSMOS 2251 DEB",
        "group": "cosmos-2251-debris",
        "lat": -8.187547195276297,
        "lon": -84.53200859655962,
        "alt_km": 573.3289499841921,
        "timestamp": "2025-12-06T14:35:37.519206+00:00",
        "meta_object_name": "COSMOS 2251 DEB",
        "meta_object_id": "1993-036EU",
        "meta_epoch": "2025-12-06T07:21:00.044928",
        "meta_mean_motion": 14.99115137,
        "meta_eccentricity": 0.0002999,
        "meta_inclination": 74.0076,
        "meta_ra_of_asc_node": 93.7164,
        "meta_arg_of_pericenter": 94.6993,
        "meta_mean_anomaly": 265.4536,
        "meta_ephemeris_type": 0,
        "meta_classification_type": "U",
        "meta_norad_cat_id": 33939,
        "meta_element_set_no": 999,
        "meta_rev_at_epoch": 88656,
        "meta_bstar": 0.0063899493,
        "meta_mean_motion_dot": 0.00078532,
        "meta_mean_motion_ddot": 0,
        "tle_line1": "1 33939U 93036EU  25340.30625052  .00078532  00000+0  63899-2 0  9996",
        "tle_line2": "2 33939  74.0076  93.7164 0002999  94.6993 265.4536 14.99115137886567"
      },
      "geometry": {
        "type": "Point",
        "coordinates": [
          -84.53200859655962,
          -8.187547195276297
        ]
      }
    },
    {
      "type": "Feature",
      "properties": {
        "norad_id": 33940,
        "name": "COSMOS 2251 DEB",
        "group": "cosmos-2251-debris",
        "lat": 40.04268125131948,
        "lon": -38.746078364338864,
        "alt_km": 694.8356412856629,
        "timestamp": "2025-12-06T14:35:37.519217+00:00",
        "meta_object_name": "COSMOS 2251 DEB",
        "meta_object_id": "1993-036EV",
        "meta_epoch": "2025-12-06T06:32:18.593088",
        "meta_mean_motion": 14.58696886,
        "meta_eccentricity": 0.00115965,
        "meta_inclination": 74.0387,
        "meta_ra_of_asc_node": 155.8097,
        "meta_arg_of_pericenter": 235.2155,
        "meta_mean_anomaly": 301.0248,
        "meta_ephemeris_type": 0,
        "meta_classification_type": "U",
        "meta_norad_cat_id": 33940,
        "meta_element_set_no": 999,
        "meta_rev_at_epoch": 88499,
        "meta_bstar": 0.0019228639,
        "meta_mean_motion_dot": 8.96e-05,
        "meta_mean_motion_ddot": 0,
        "tle_line1": "1 33940U 93036EV  25340.27243742  .00008960  00000+0  19229-2 0  9992",
        "tle_line2": "2 33940  74.0387 155.8097 0011596 235.2155 301.0248 14.58696886884997"
      },
      "geometry": {
        "type": "Point",
        "coordinates": [
          -38.746078364338864,
          40.04268125131948
        ]
      }
    },
    {
      "type": "Feature",
      "properties": {
        "norad_id": 33942,
        "name": "COSMOS 2251 DEB",
        "group": "cosmos-2251-debris",
        "lat": 67.12221213998596,
        "lon": -31.161694113754823,
        "alt_km": 751.7324313694935,
        "timestamp": "2025-12-06T14:35:37.519227+00:00",
        "meta_object_name": "COSMOS 2251 DEB",
        "meta_object_id": "1993-036EX",
        "meta_epoch": "2025-12-06T01:15:15.415200",
        "meta_mean_motion": 14.37972423,
        "meta_eccentricity": 0.00200111,
        "meta_inclination": 74.0362,
        "meta_ra_of_asc_node": 287.1447,
        "meta_arg_of_pericenter": 11.877,
        "meta_mean_anomaly": 65.241,
        "meta_ephemeris_type": 0,
        "meta_classification_type": "U",
        "meta_norad_cat_id": 33942,
        "meta_element_set_no": 999,
        "meta_rev_at_epoch": 88038,
        "meta_bstar": 0.00044020068,
        "meta_mean_motion_dot": 1.308e-05,
        "meta_mean_motion_ddot": 0,
        "tle_line1": "1 33942U 93036EX  25340.05226175  .00001308  00000+0  44020-3 0  9998",
        "tle_line2": "2 33942  74.0362 287.1447 0020011  11.8770  65.2410 14.37972423880383"
      },
      "geometry": {
        "type": "Point",
        "coordinates": [
          -31.161694113754823,
          67.12221213998596
        ]
      }
    },
    {
      "type": "Feature",
      "properties": {
        "norad_id": 33944,
        "name": "COSMOS 2251 DEB",
        "group": "cosmos-2251-debris",
        "lat": -37.55039913782085,
        "lon": -52.50053400559162,
        "alt_km": 787.3558625002133,
        "timestamp": "2025-12-06T14:35:37.519238+00:00",
        "meta_object_name": "COSMOS 2251 DEB",
        "meta_object_id": "1993-036EZ",
        "meta_epoch": "2025-12-05T23:59:44.079072",
        "meta_mean_motion": 14.37320441,
        "meta_eccentricity": 0.01119666,
        "meta_inclination": 74.04,
        "meta_ra_of_asc_node": 321.3265,
        "meta_arg_of_pericenter": 62.7047,
        "meta_mean_anomaly": 353.2393,
        "meta_ephemeris_type": 0,
        "meta_classification_type": "U",
        "meta_norad_cat_id": 33944,
        "meta_element_set_no": 999,
        "meta_rev_at_epoch": 87931,
        "meta_bstar": 0.00052859209,
        "meta_mean_motion_dot": 1.669e-05,
        "meta_mean_motion_ddot": 0,
        "tle_line1": "1 33944U 93036EZ  25339.99981573  .00001669  00000+0  52859-3 0  9990",
        "tle_line2": "2 33944  74.0400 321.3265 0111966  62.7047 353.2393 14.37320441879317"
      },
      "geometry": {
        "type": "Point",
        "coordinates": [
          -52.50053400559162,
          -37.55039913782085
        ]
      }
    },
    {
      "type": "Feature",
      "properties": {
        "norad_id": 33945,
        "name": "COSMOS 2251 DEB",
        "group": "cosmos-2251-debris",
        "lat": 4.349843449891383,
        "lon": 136.2552448545434,
        "alt_km": 788.3028112293196,
        "timestamp": "2025-12-06T14:35:37.519248+00:00",
        "meta_object_name": "COSMOS 2251 DEB",
        "meta_object_id": "1993-036FA",
        "meta_epoch": "2025-12-06T05:24:45.603648",
        "meta_mean_motion": 14.34592322,
        "meta_eccentricity": 0.00216527,
        "meta_inclination": 74.0294,
        "meta_ra_of_asc_node": 318.2041,
        "meta_arg_of_pericenter": 46.5394,
        "meta_mean_anomaly": 313.7554,
        "meta_ephemeris_type": 0,
        "meta_classification_type": "U",
        "meta_norad_cat_id": 33945,
        "meta_element_set_no": 999,
        "meta_rev_at_epoch": 87922,
        "meta_bstar": 0.00024323081,
        "meta_mean_motion_dot": 6.63e-06,
        "meta_mean_motion_ddot": 0,
        "tle_line1": "1 33945U 93036FA  25340.22552782  .00000663  00000+0  24323-3 0  9993",
        "tle_line2": "2 33945  74.0294 318.2041 0021652  46.5394 313.7554 14.34592322879229"
      },
      "geometry": {
        "type": "Point",
        "coordinates": [
          136.2552448545434,
          4.349843449891383
        ]
      }
    },
    {
      "type": "Feature",
      "properties": {
        "norad_id": 33948,
        "name": "COSMOS 2251 DEB",
        "group": "cosmos-2251-debris",
        "lat": 1.182386147879025,
        "lon": -43.2763232880777,
        "alt_km": 761.933924140666,
        "timestamp": "2025-12-06T14:35:37.519258+00:00",
        "meta_object_name": "COSMOS 2251 DEB",
        "meta_object_id": "1993-036FD",
        "meta_epoch": "2025-12-06T04:33:12.658176",
        "meta_mean_motion": 14.35616727,
        "meta_eccentricity": 0.00224501,
        "meta_inclination": 74.035,
        "meta_ra_of_asc_node": 317.1524,
        "meta_arg_of_pericenter": 34.8262,
        "meta_mean_anomaly": 325.4354,
        "meta_ephemeris_type": 0,
        "meta_classification_type": "U",
        "meta_norad_cat_id": 33948,
        "meta_element_set_no": 999,
        "meta_rev_at_epoch": 87929,
        "meta_bstar": 0.00034986517,
        "meta_mean_motion_dot": 9.86e-06,
        "meta_mean_motion_ddot": 0,
        "tle_line1": "1 33948U 93036FD  25340.18972984  .00000986  00000+0  34987-3 0  9996",
        "tle_line2": "2 33948  74.0350 317.1524 0022450  34.8262 325.4354 14.35616727879292"
      },
      "geometry": {
        "type": "Point",
        "coordinates": [
          -43.2763232880777,
          1.182386147879025
        ]
      }
    },
    {
      "type": "Feature",
      "properties": {
        "norad_id": 33971,
        "name": "COSMOS 2251 DEB",
        "group": "cosmos-2251-debris",
        "lat": -20.319186280060404,
        "lon": -101.02404639849709,
        "alt_km": 752.7796719496419,
        "timestamp": "2025-12-06T14:35:37.519268+00:00",
        "meta_object_name": "COSMOS 2251 DEB",
        "meta_object_id": "1993-036FE",
        "meta_epoch": "2025-12-06T05:22:56.441568",
        "meta_mean_motion": 14.39705739,
        "meta_eccentricity": 0.00182313,
        "meta_inclination": 74.025,
        "meta_ra_of_asc_node": 265.774,
        "meta_arg_of_pericenter": 7.4359,
        "meta_mean_anomaly": 143.1409,
        "meta_ephemeris_type": 0,
        "meta_classification_type": "U",
        "meta_norad_cat_id": 33971,
        "meta_element_set_no": 999,
        "meta_rev_at_epoch": 88045,
        "meta_bstar": 0.0005538124,
        "meta_mean_motion_dot": 1.711e-05,
        "meta_mean_motion_ddot": 0,
        "tle_line1": "1 33971U 93036FE  25340.22426437  .00001711  00000+0  55381-3 0  9992",
        "tle_line2": "2 33971  74.0250 265.7740 0018231   7.4359 143.1409 14.39705739880452"
      },
      "geometry": {
        "type": "Point",
        "coordinates": [
          -101.02404639849709,
          -20.319186280060404
        ]
      }
    }
  ]
}